QIANFAN-9               
1 60387U 24140J   25305.57865045  .00000072  00000+0  93278-4 0  9991
2 60387  88.9734 303.6038 0015040 322.7770  37.2337 13.50975338 61776
QIANFAN-10              
1 60388U 24140K   25305.58284122  .00000056  00000+0  68603-4 0  9990
2 60388  88.9743 302.9463 0012953 298.4539  61.5306 13.50976383 61905
QIANFAN-11              
1 60389U 24140L   25305.54576711  .00000059  00000+0  73546-4 0  9990
2 60389  88.9670 303.5683 0013088 323.5471  36.4788 13.50972499 61551
QIANFAN-12              
1 60390U 24140M   25305.56628803  .00000059  00000+0  73215-4 0  9997
2 60390  88.9713 303.5917 0012173 333.0294  27.0223 13.50972998 61682
QIANFAN-13              
1 60391U 24140N   25305.53750071  .00000067  00000+0  84847-4 0  9990
2 60391  88.9725 303.6895 0012087 336.0494  24.0094 13.50973315 61701
QIANFAN-14              
1 60392U 24140P   25305.56208809  .00000049  00000+0  57793-4 0  9991
2 60392  88.9704 303.5933 0015741 333.8860  26.1495 13.50973420 61719
QIANFAN-15              
1 60393U 24140Q   25305.57032201  .00000071  00000+0  91020-4 0  9990
2 60393  88.9728 303.5391 0011131 321.3628  38.6726 13.50971565 61709
QIANFAN-16              
1 60394U 24140R   25305.55814539  .00000056  00000+0  68784-4 0  9995
2 60394  88.9731 303.6593 0013817 338.9871  21.0711 13.50972422 61619
